CCSDS_OMM_VERS = 2.0
CREATION_DATE  = 
ORIGINATOR     = 

OBJECT_NAME    = ENVISAT
OBJECT_ID      = 2002-009A
CENTER_NAME    = EARTH
REF_FRAME      = TEME
TIME_SYSTEM    = UTC
MEAN_ELEMENT_THEORY = SGP/SGP4

EPOCH          = 2025-12-01T20:21:44.078112
MEAN_MOTION    = 14.38992457
ECCENTRICITY   = .0001182
INCLINATION    = 98.3583
RA_OF_ASC_NODE = 286.8660
ARG_OF_PERICENTER = 81.9469
MEAN_ANOMALY   = 332.4462

EPHEMERIS_TYPE = 0
CLASSIFICATION_TYPE = U
NORAD_CAT_ID   = 27386
ELEMENT_SET_NO = 999
REV_AT_EPOCH   = 24510
BSTAR          = .61991E-4
MEAN_MOTION_DOT = .149E-5
MEAN_MOTION_DDOT = 0

CCSDS_OMM_VERS = 2.0
CREATION_DATE  = 
ORIGINATOR     = 

OBJECT_NAME    = IDEFIX & ARIANE 42P R/B
OBJECT_ID      = 2002-021B
CENTER_NAME    = EARTH
REF_FRAME      = TEME
TIME_SYSTEM    = UTC
MEAN_ELEMENT_THEORY = SGP/SGP4

EPOCH          = 2025-12-01T19:33:32.757408
MEAN_MOTION    = 14.30936835
ECCENTRICITY   = .0012787
INCLINATION    = 98.5770
RA_OF_ASC_NODE = 270.6485
ARG_OF_PERICENTER = 113.1072
MEAN_ANOMALY   = 247.1460

EPHEMERIS_TYPE = 0
CLASSIFICATION_TYPE = U
NORAD_CAT_ID   = 27422
ELEMENT_SET_NO = 999
REV_AT_EPOCH   = 23002
BSTAR          = .1493E-3
MEAN_MOTION_DOT = .349E-5
MEAN_MOTION_DDOT = 0

CCSDS_OMM_VERS = 2.0
CREATION_DATE  = 
ORIGINATOR     = 

OBJECT_NAME    = AQUA
OBJECT_ID      = 2002-022A
CENTER_NAME    = EARTH
REF_FRAME      = TEME
TIME_SYSTEM    = UTC
MEAN_ELEMENT_THEORY = SGP/SGP4

EPOCH          = 2025-12-01T20:56:50.404704
MEAN_MOTION    = 14.61765372
ECCENTRICITY   = .0000705
INCLINATION    = 98.4022
RA_OF_ASC_NODE = 296.5765
ARG_OF_PERICENTER = 105.6685
MEAN_ANOMALY   = 307.2189

EPHEMERIS_TYPE = 0
CLASSIFICATION_TYPE = U
NORAD_CAT_ID   = 27424
ELEMENT_SET_NO = 999
REV_AT_EPOCH   = 25444
BSTAR          = .26013E-3
MEAN_MOTION_DOT = .1248E-4
MEAN_MOTION_DDOT = 0

CCSDS_OMM_VERS = 2.0
CREATION_DATE  = 
ORIGINATOR     = 

OBJECT_NAME    = CZ-4B R/B
OBJECT_ID      = 2002-024C
CENTER_NAME    = EARTH
REF_FRAME      = TEME
TIME_SYSTEM    = UTC
MEAN_ELEMENT_THEORY = SGP/SGP4

EPOCH          = 2025-12-01T18:17:26.362752
MEAN_MOTION    = 14.14524032
ECCENTRICITY   = .0049281
INCLINATION    = 98.9016
RA_OF_ASC_NODE = 24.5713
ARG_OF_PERICENTER = 301.6971
MEAN_ANOMALY   = 168.5254

EPHEMERIS_TYPE = 0
CLASSIFICATION_TYPE = U
NORAD_CAT_ID   = 27432
ELEMENT_SET_NO = 999
REV_AT_EPOCH   = 21539
BSTAR          = .5712E-4
MEAN_MOTION_DOT = .66E-6
MEAN_MOTION_DDOT = 0

CCSDS_OMM_VERS = 2.0
CREATION_DATE  = 
ORIGINATOR     = 

OBJECT_NAME    = MIDORI II (ADEOS-II)
OBJECT_ID      = 2002-056A
CENTER_NAME    = EARTH
REF_FRAME      = TEME
TIME_SYSTEM    = UTC
MEAN_ELEMENT_THEORY = SGP/SGP4

EPOCH          = 2025-12-01T19:03:22.966848
MEAN_MOTION    = 14.29193410
ECCENTRICITY   = .0000413
INCLINATION    = 98.7619
RA_OF_ASC_NODE = 288.6938
ARG_OF_PERICENTER = 10.9044
MEAN_ANOMALY   = 349.2147

EPHEMERIS_TYPE = 0
CLASSIFICATION_TYPE = U
NORAD_CAT_ID   = 27597
ELEMENT_SET_NO = 999
REV_AT_EPOCH   = 19631
BSTAR          = .14812E-3
MEAN_MOTION_DOT = .331E-5
MEAN_MOTION_DDOT = 0

CCSDS_OMM_VERS = 2.0
CREATION_DATE  = 
ORIGINATOR     = 

OBJECT_NAME    = H-2A R/B
OBJECT_ID      = 2002-056E
CENTER_NAME    = EARTH
REF_FRAME      = TEME
TIME_SYSTEM    = UTC
MEAN_ELEMENT_THEORY = SGP/SGP4

EPOCH          = 2025-12-01T20:40:45.420384
MEAN_MOTION    = 14.33661795
ECCENTRICITY   = .0071496
INCLINATION    = 98.3050
RA_OF_ASC_NODE = 295.0527
ARG_OF_PERICENTER = 93.0293
MEAN_ANOMALY   = 321.0822

EPHEMERIS_TYPE = 0
CLASSIFICATION_TYPE = U
NORAD_CAT_ID   = 27601
ELEMENT_SET_NO = 999
REV_AT_EPOCH   = 20009
BSTAR          = .13799E-3
MEAN_MOTION_DOT = .353E-5
MEAN_MOTION_DDOT = 0

CCSDS_OMM_VERS = 2.0
CREATION_DATE  = 
ORIGINATOR     = 

OBJECT_NAME    = CZ-4B R/B
OBJECT_ID      = 2003-049C
CENTER_NAME    = EARTH
REF_FRAME      = TEME
TIME_SYSTEM    = UTC
MEAN_ELEMENT_THEORY = SGP/SGP4

EPOCH          = 2025-12-01T17:30:19.980288
MEAN_MOTION    = 14.54892817
ECCENTRICITY   = .0048413
INCLINATION    = 98.6780
RA_OF_ASC_NODE = 321.8780
ARG_OF_PERICENTER = 169.3226
MEAN_ANOMALY   = 190.9009

EPHEMERIS_TYPE = 0
CLASSIFICATION_TYPE = U
NORAD_CAT_ID   = 28059
ELEMENT_SET_NO = 999
REV_AT_EPOCH   = 17235
BSTAR          = .11343E-3
MEAN_MOTION_DOT = .444E-5
MEAN_MOTION_DDOT = 0

CCSDS_OMM_VERS = 2.0
CREATION_DATE  = 
ORIGINATOR     = 

OBJECT_NAME    = CZ-2C R/B
OBJECT_ID      = 2004-012C
CENTER_NAME    = EARTH
REF_FRAME      = TEME
TIME_SYSTEM    = UTC
MEAN_ELEMENT_THEORY = SGP/SGP4

EPOCH          = 2025-12-01T19:11:30.102144
MEAN_MOTION    = 15.54413039
ECCENTRICITY   = .0017176
INCLINATION    = 97.7450
RA_OF_ASC_NODE = 27.5259
ARG_OF_PERICENTER = 313.0864
MEAN_ANOMALY   = 46.8951

EPHEMERIS_TYPE = 0
CLASSIFICATION_TYPE = U
NORAD_CAT_ID   = 28222
ELEMENT_SET_NO = 999
REV_AT_EPOCH   = 18902
BSTAR          = .55928E-3
MEAN_MOTION_DOT = .36942E-3
MEAN_MOTION_DDOT = 0

CCSDS_OMM_VERS = 2.0
CREATION_DATE  = 
ORIGINATOR     = 

OBJECT_NAME    = SL-16 R/B
OBJECT_ID      = 2004-021B
CENTER_NAME    = EARTH
REF_FRAME      = TEME
TIME_SYSTEM    = UTC
MEAN_ELEMENT_THEORY = SGP/SGP4

EPOCH          = 2025-12-01T17:33:35.455104
MEAN_MOTION    = 14.14582420
ECCENTRICITY   = .0005861
INCLINATION    = 71.0022
RA_OF_ASC_NODE = 78.0647
ARG_OF_PERICENTER = 214.4121
MEAN_ANOMALY   = 145.6622

EPHEMERIS_TYPE = 0
CLASSIFICATION_TYPE = U
NORAD_CAT_ID   = 28353
ELEMENT_SET_NO = 999
REV_AT_EPOCH   = 10898
BSTAR          = -.24078E-4
MEAN_MOTION_DOT = -.94E-6
MEAN_MOTION_DDOT = 0

CCSDS_OMM_VERS = 2.0
CREATION_DATE  = 
ORIGINATOR     = 

OBJECT_NAME    = CZ-4B R/B
OBJECT_ID      = 2004-035C
CENTER_NAME    = EARTH
REF_FRAME      = TEME
TIME_SYSTEM    = UTC
MEAN_ELEMENT_THEORY = SGP/SGP4

EPOCH          = 2025-12-01T19:35:11.820192
MEAN_MOTION    = 15.27099529
ECCENTRICITY   = .0032308
INCLINATION    = 97.3628
RA_OF_ASC_NODE = 6.3080
ARG_OF_PERICENTER = 318.0085
MEAN_ANOMALY   = 41.8677

EPHEMERIS_TYPE = 0
CLASSIFICATION_TYPE = U
NORAD_CAT_ID   = 28415
ELEMENT_SET_NO = 999
REV_AT_EPOCH   = 16496
BSTAR          = .31789E-3
MEAN_MOTION_DOT = .8504E-4
MEAN_MOTION_DDOT = 0

CCSDS_OMM_VERS = 2.0
CREATION_DATE  = 
ORIGINATOR     = 

OBJECT_NAME    = CZ-2C R/B
OBJECT_ID      = 2004-046B
CENTER_NAME    = EARTH
REF_FRAME      = TEME
TIME_SYSTEM    = UTC
MEAN_ELEMENT_THEORY = SGP/SGP4

EPOCH          = 2025-12-01T17:45:13.461696
MEAN_MOTION    = 14.26932707
ECCENTRICITY   = .0140712
INCLINATION    = 98.1980
RA_OF_ASC_NODE = 251.8019
ARG_OF_PERICENTER = 84.5778
MEAN_ANOMALY   = 277.1437

EPHEMERIS_TYPE = 0
CLASSIFICATION_TYPE = U
NORAD_CAT_ID   = 28480
ELEMENT_SET_NO = 999
REV_AT_EPOCH   = 9453
BSTAR          = .89978E-4
MEAN_MOTION_DOT = .203E-5
MEAN_MOTION_DDOT = 0

CCSDS_OMM_VERS = 2.0
CREATION_DATE  = 
ORIGINATOR     = 

OBJECT_NAME    = ARIANE 5 R/B
OBJECT_ID      = 2004-049H
CENTER_NAME    = EARTH
REF_FRAME      = TEME
TIME_SYSTEM    = UTC
MEAN_ELEMENT_THEORY = SGP/SGP4

EPOCH          = 2025-12-01T17:41:02.587200
MEAN_MOTION    = 14.84970569
ECCENTRICITY   = .0083664
INCLINATION    = 98.2518
RA_OF_ASC_NODE = 135.6240
ARG_OF_PERICENTER = 309.0985
MEAN_ANOMALY   = 50.2809

EPHEMERIS_TYPE = 0
CLASSIFICATION_TYPE = U
NORAD_CAT_ID   = 28499
ELEMENT_SET_NO = 999
REV_AT_EPOCH   = 13125
BSTAR          = .12574E-3
MEAN_MOTION_DOT = .1075E-4
MEAN_MOTION_DDOT = 0

