ENVISAT                 
1 27386U 02009A   25335.84842683  .00000149  00000+0  61991-4 0  9991
2 27386  98.3583 286.8660 0001182  81.9469 332.4462 14.38992457245107
IDEFIX & ARIANE 42P R/B 
1 27422U 02021B   25335.81496247  .00000349  00000+0  14930-3 0  9996
2 27422  98.5770 270.6485 0012787 113.1072 247.1460 14.30936835230020
AQUA                    
1 27424U 02022A   25335.87280561  .00001248  00000+0  26013-3 0  9999
2 27424  98.4022 296.5765 0000705 105.6685 307.2189 14.61765372254440
CZ-4B R/B               
1 27432U 02024C   25335.76211068  .00000066  00000+0  57120-4 0  9995
2 27432  98.9016  24.5713 0049281 301.6971 168.5254 14.14524032215393
MIDORI II (ADEOS-II)    
1 27597U 02056A   25335.79401582  .00000331  00000+0  14812-3 0  9992
2 27597  98.7619 288.6938 0000413  10.9044 349.2147 14.29193410196316
H-2A R/B                
1 27601U 02056E   25335.86163681  .00000353  00000+0  13799-3 0  9998
2 27601  98.3050 295.0527 0071496  93.0293 321.0822 14.33661795200090
CZ-4B R/B               
1 28059U 03049C   25335.72939792  .00000444  00000+0  11343-3 0  9992
2 28059  98.6780 321.8780 0048413 169.3226 190.9009 14.54892817172357
CZ-2C R/B               
1 28222U 04012C   25335.79965396  .00036942  00000+0  55928-3 0  9990
2 28222  97.7450  27.5259 0017176 313.0864  46.8951 15.54413039189025
SL-16 R/B               
1 28353U 04021B   25335.73166036 -.00000094  00000+0 -24078-4 0  9997
2 28353  71.0022  78.0647 0005861 214.4121 145.6622 14.14582420108985
CZ-4B R/B               
1 28415U 04035C   25335.81610903  .00008504  00000+0  31789-3 0  9995
2 28415  97.3628   6.3080 0032308 318.0085  41.8677 15.27099529164963
CZ-2C R/B               
1 28480U 04046B   25335.73973914  .00000203  00000+0  89978-4 0  9996
2 28480  98.1980 251.8019 0140712  84.5778 277.1437 14.26932707 94532
ARIANE 5 R/B            
1 28499U 04049H   25335.73683550  .00001075  00000+0  12574-3 0  9998
2 28499  98.2518 135.6240 0083664 309.0985  50.2809 14.84970569131258
